ONEWEB-0694             
1 56722U 23068N   24088.53424495  .00000075  00000+0  16164-3 0  9991
2 56722  87.9128  30.0822 0002255  91.3939 268.7450 13.16595834 45109
ONEWEB-0696             
1 56723U 23068P   24088.47761475 -.00000029  00000+0 -10977-3 0  9994
2 56723  87.8993  60.5585 0001821  74.4513 285.6819 13.15548967 42772
ONEWEB-0703             
1 56724U 23068Q   24088.48711486 -.00000052  00000+0 -17219-3 0  9995
2 56724  87.8993  60.5779 0001835  42.8384 317.2889 13.15547826 42668
ONEWEB-0721             
1 56725U 23068R   24088.51740470  .00004883  00000+0  57577-3 0  9990
2 56725  86.6829   9.7922 0010025 183.9761 176.1386 14.84529889 46547
